[{"OBJECT_NAME":"STARLINK-5520","OBJECT_ID":"2023-094B","EPOCH":"2026-03-09T06:37:58.905408","MEAN_MOTION":15.02536069,"ECCENTRICITY":0.00013169,"INCLINATION":43.0044,"RA_OF_ASC_NODE":32.9342,"ARG_OF_PERICENTER":267.5641,"MEAN_ANOMALY":92.5051,"EPHEMERIS_TYPE":0,"CLASSIFICATION_TYPE":"U","NORAD_CAT_ID":57219,"ELEMENT_SET_NO":999,"REV_AT_EPOCH":14705,"BSTAR":2.1674111e-5,"MEAN_MOTION_DOT":8.9e-7,"MEAN_MOTION_DDOT":0},{"OBJECT_NAME":"CZ-4C R\/B","OBJECT_ID":"2024-186B","EPOCH":"2026-03-09T22:51:12.491424","MEAN_MOTION":15.07425891,"ECCENTRICITY":0.00475116,"INCLINATION":97.8722,"RA_OF_ASC_NODE":96.5934,"ARG_OF_PERICENTER":122.4234,"MEAN_ANOMALY":238.1602,"EPHEMERIS_TYPE":0,"CLASSIFICATION_TYPE":"U","NORAD_CAT_ID":61572,"ELEMENT_SET_NO":999,"REV_AT_EPOCH":7672,"BSTAR":0.00027865777,"MEAN_MOTION_DOT":4.262e-5,"MEAN_MOTION_DDOT":0}]
